{
"type": "FeatureCollection",
"name": "aoi_corridor",
"crs": { "type": "name", "properties": { "name": "urn:ogc:def:crs:OGC:1.3:CRS84" } },
"features": [
{ "type": "Feature", "properties": { "name": "Imola-CastelBolognese-Faenza_8km" }, "geometry": { "type": "Polygon", "coordinates": [ [ [ 11.835375726168484, 44.397634371441441 ], [ 11.843993849980219, 44.39496060895268 ], [ 11.852224926022426, 44.391720617170577 ], [ 11.859996784728107, 44.387942838829126 ], [ 11.943327286653783, 44.343150891945321 ], [ 11.950901114591055, 44.338640233772026 ], [ 11.957821229265283, 44.333618119052659 ], [ 11.964021003455796, 44.328133036918572 ], [ 11.969440814631042, 44.322237930602817 ], [ 11.974028615818066, 44.315989682985467 ], [ 11.977740431045307, 44.30944856455676 ], [ 11.980540770817058, 44.302677649276511 ], [ 11.982402963934286, 44.295742204097628 ], [ 11.98330940285536, 44.288709058148655 ], [ 11.98325170068086, 44.28164595773579 ], [ 11.982230758737785, 44.274620913427462 ], [ 11.980256744620819, 44.267701545525348 ], [ 11.977348981412014, 44.260954434206006 ], [ 11.973535749637621, 44.254444480536087 ], [ 11.968854004324513, 44.248234284428378 ], [ 11.963349010282224, 44.242383545412245 ], [ 11.957073899455551, 44.236948491849169 ], [ 11.950089154861933, 44.231981343929839 ], [ 11.942462026244932, 44.227529815452471 ], [ 11.934265883136923, 44.223636659001087 ], [ 11.925579511529241, 44.220339258725993 ], [ 11.916486360794956, 44.217669274476748 ], [ 11.907073747897757, 44.215652340557703 ], [ 11.897432026249238, 44.214307821868694 ], [ 11.887653726846562, 44.213648629666523 ], [ 11.877832679532535, 44.213681098636144 ], [ 11.868063122370838, 44.214404926402715 ], [ 11.858438807220443, 44.215813176047931 ], [ 11.849052109625049, 44.217892341621138 ], [ 11.83999315110556, 44.220622476063767 ], [ 11.831348941855971, 44.223977380395702 ], [ 11.823202551695264, 44.227924852451963 ], [ 11.751278634127914, 44.266545510544937 ], [ 11.678820086756991, 44.286140895428886 ], [ 11.669795333642988, 44.288947711681089 ], [ 11.661196046768817, 44.292375779421256 ], [ 11.653104869022297, 44.296392193199644 ], [ 11.645599611489546, 44.300958390665237 ], [ 11.638752508393177, 44.306030519439318 ], [ 11.632629523229319, 44.311559854751529 ], [ 11.627289712713216, 44.317493263994024 ], [ 11.622784654684027, 44.323773713898525 ], [ 11.619157945600689, 44.330340815624439 ], [ 11.616444772683474, 44.337131402668668 ], [ 11.614671565122247, 44.344080136172622 ], [ 11.613855728085445, 44.351120131914534 ], [ 11.614005462526714, 44.358183603036764 ], [ 11.615119673004235, 44.365202512374971 ], [ 11.617187964906107, 44.372109228127734 ], [ 11.620190731620989, 44.378837176538639 ], [ 11.624099331314074, 44.38532148525497 ], [ 11.628876352073098, 44.391499611084633 ], [ 11.63447596328751, 44.397311945991191 ], [ 11.640844350226194, 44.402702395351291 ], [ 11.647920227896787, 44.407618922743971 ], [ 11.655635429414048, 44.412014055849205 ], [ 11.663915563287675, 44.415845348399294 ], [ 11.67268073327338, 44.419075793549396 ], [ 11.681846313726117, 44.421674184507104 ], [ 11.691323772762306, 44.423615418783264 ], [ 11.701021534988305, 44.424880742988385 ], [ 11.710845875094664, 44.425457935697985 ], [ 11.720701833256802, 44.425341426536896 ], [ 11.730494143029208, 44.424532350281297 ], [ 11.740128162275981, 44.423038535439325 ], [ 11.749510797647762, 44.420874427438989 ], [ 11.835375726168484, 44.397634371441441 ] ] ] } }
]
}
